{
  "placeMarks": [
    {
      "coords": [
        42.92975927762538,
        74.58716057128905
      ],
      "id": 1566033241008,
      "placeName": "Название места 1"
    },
    {
      "coords": [
        42.89240963051402,
        74.59952019042966
      ],
      "id": 1566033438438,
      "placeName": "Placedata 2"
    },
    {
      "coords": [
        42.874231289340806,
        74.50304649658202
      ],
      "id": 1566039096501,
      "placeName": "Placename 3"
    },
    {
      "coords": [
        42.831794180280355,
        74.63659904785158
      ],
      "id": 1566039202846,
      "placeName": "БОТАНИЧЕСКИЙ САД"
    },
    {
      "coords": [
        42.837353091982685,
        74.57033775634764
      ],
      "id": 1566454279582,
      "placeName": "Test 5"
    },
    {
      "coords": [
        42.90301117140501,
        74.62320946044919
      ],
      "id": 1566454653218,
      "placeName": "КАРАГАЧЁВАЯ РОЩА"
    },
    {
      "coords": [
        42.86791810349256,
        74.73513267822263
      ],
      "id": 1566456139523,
      "placeName": "НОВОПОКРОВКА"
    },
    {
      "coords": [
        42.992068322601206,
        74.55774486641971
      ],
      "id": 1566456313010,
      "placeName": "Ала-Арчинское вднх"
    }
  ],
  "places": [
    {
      "coords": [
        42.92975927762538,
        74.58716057128905
      ],
      "mapAddress": "Киргизия, Бишкек, улица Чуй 13, 17",
      "placeName": "Название места 1",
      "id": 1566033241008,
      "placeType": "trashPlace",
      "isNew": true,
      "imageArray": {
        "trash": [],
        "clean": [],
        "boxes": []
      }
    },
    {
      "coords": [
        42.89240963051402,
        74.59952019042966
      ],
      "mapAddress": "Киргизия, Бишкек, улица Серова",
      "placeName": "Placedata 2",
      "id": 1566033438438,
      "placeType": "cleanPlace",
      "isNew": true,
      "imageArray": {
        "trash": [],
        "clean": [],
        "boxes": []
      }
    },
    {
      "coords": [
        42.874231289340806,
        74.50304649658202
      ],
      "mapAddress": "Киргизия, Бишкек, проспект Дэн Сяопина, 398",
      "placeName": "Placename 3",
      "id": 1566039096501,
      "placeType": "trashBox",
      "isNew": false,
      "imageArray": {
        "trash": [],
        "clean": [],
        "boxes": []
      }
    },
    {
      "coords": [
        42.831794180280355,
        74.63659904785158
      ],
      "mapAddress": "Киргизия, Бишкек, Ботанический сад Национальной академии наук Кыргызской Республики",
      "placeName": "БОТАНИЧЕСКИЙ САД",
      "id": 1566039202846,
      "placeType": "trashPlace",
      "isNew": false,
      "imageArray": {
        "trash": [],
        "clean": [],
        "boxes": []
      }
    },
    {
      "coords": [
        42.837353091982685,
        74.57033775634764
      ],
      "mapAddress": "Киргизия, Бишкек, улица Тыналиева, 38/1",
      "placeName": "Test 5",
      "id": 1566454279582,
      "placeType": "cleanPlace",
      "isNew": true,
      "imageArray": {
        "trash": [],
        "clean": [],
        "boxes": []
      }
    },
    {
      "coords": [
        42.90301117140501,
        74.62320946044919
      ],
      "mapAddress": "Киргизия, Бишкек, Карагачёвая роща",
      "placeName": "КАРАГАЧЁВАЯ РОЩА",
      "id": 1566454653218,
      "placeType": "cleanPlace",
      "isNew": true,
      "imageArray": {
        "trash": [
          "/content/trash1.jpg",
          "/content/trash2.jpg"
        ],
        "clean": [
          "/content/clean2.jpg",
          "/content/clean1.jpg"
        ],
        "boxes": []
      }
    },
    {
      "coords": [
        42.86791810349256,
        74.73513267822263
      ],
      "mapAddress": "Киргизия, Чуйская область, село Новопокровка",
      "placeName": "НОВОПОКРОВКА",
      "id": 1566456139523,
      "placeType": "trashBox",
      "isNew": true,
      "imageArray": {
        "trash": [],
        "clean": [],
        "boxes": [
          "/content/box1.jpg",
          "/content/box2.jpg"
        ]
      }
    },
    {
      "coords": [
        42.992068322601206,
        74.55774486641971
      ],
      "mapAddress": "Киргизия, Чуйская область",
      "placeName": "Ала-Арчинское вднх",
      "id": 1566456313010,
      "placeType": "trashPlace",
      "isNew": true,
      "imageArray": {
        "trash": [
          "/content/magdalena-swiderska-05-desk-books-b.jpg",
          "/content/magdalena-swiderska-06-library-big-books.jpg",
          "/content/magdalena-swiderska-07-carpent-flowers.jpg",
          "/content/magdalena-swiderska-08-dante-cat.jpg",
          "/content/magdalena-swiderska-09-kira-cat2.jpg"
        ],
        "clean": [],
        "boxes": [
          "/content/box1.jpg",
          "/content/box2.jpg"
        ]
      }
    }
  ]
}